NORAD_CAT_ID,OBJECT_NAME,OBJECT_TYPE,EPOCH,MEAN_MOTION,ECCENTRICITY,INCLINATION,RA_OF_ASC_NODE,ARG_OF_PERICENTER,MEAN_ANOMALY,BSTAR,MEAN_MOTION_DOT,MEAN_MOTION_DDOT,TLE_LINE0,TLE_LINE1,TLE_LINE2,SEMIMAJOR_AXIS,PERIOD,APOGEE,PERIGEE,DECAYED
56487.0,STARLINK-6196,PAYLOAD,2024-03-29 17:13:17,14.98335432,0.0002903,69.9988,94.6264,269.3596,90.723,5.6621e-05,5.83e-06,0.0,0 STARLINK-6196,1 56487U 23064AR  24089.71756079  .00000583  00000-0  56621-4 0  9990,2 56487  69.9988  94.6264 0002903 269.3596  90.7230 14.98335432 49888,6950.176,96.107,574.059,570.023,0.0
56487.0,STARLINK-6196,PAYLOAD,2024-03-30 06:02:21,14.98334405,0.0002785,69.9991,93.2799,271.2739,88.8101,-1.4934e-05,-2.71e-06,0.0,0 STARLINK-6196,1 56487U 23064AR  24090.25164165 -.00000271  00000-0 -14934-4 0  9997,2 56487  69.9991  93.2799 0002785 271.2739  88.8101 14.98334405 50324,6950.179,96.107,573.98,570.109,0.0
56487.0,STARLINK-6196,PAYLOAD,2024-03-30 09:14:37,14.98334421,0.0002776,69.9991,92.9433,270.8813,89.2028,-1.9853e-05,-3.3e-06,0.0,0 STARLINK-6196,1 56487U 23064AR  24090.38516126 -.00000330  00000-0 -19853-4 0  9990,2 56487  69.9991  92.9433 0002776 270.8813  89.2028 14.98334421 49984,6950.179,96.107,573.974,570.115,0.0
56487.0,STARLINK-6196,PAYLOAD,2024-03-30 17:15:18,14.98334927,0.000275,69.9991,92.1016,270.5531,89.5313,-3.7398e-05,-5.39e-06,0.0,0 STARLINK-6196,1 56487U 23064AR  24090.71896007 -.00000539  00000-0 -37398-4 0  9991,2 56487  69.9991  92.1016 0002750 270.5531  89.5313 14.98334927 50038,6950.178,96.107,573.954,570.131,0.0
56487.0,STARLINK-6196,PAYLOAD,2024-03-31 06:04:22,14.98336653,0.0002719,69.9992,90.7548,269.1696,90.9152,-6.5443e-05,-8.74e-06,0.0,0 STARLINK-6196,1 56487U 23064AR  24091.25303715 -.00000874  00000-0 -65443-4 0  9994,2 56487  69.9992  90.7548 0002719 269.1696  90.9152 14.98336653 50477,6950.172,96.107,573.927,570.148,0.0
56487.0,STARLINK-6196,PAYLOAD,2024-03-31 10:52:46,14.98336476,0.0002726,69.9992,90.2497,269.0897,90.9949,-6.2156e-05,-8.35e-06,0.0,0 STARLINK-6196,1 56487U 23064AR  24091.45331635 -.00000835  00000-0 -62156-4 0  9993,2 56487  69.9992  90.2497 0002726 269.0897  90.9949 14.98336476 50146,6950.173,96.107,573.932,570.143,0.0
56487.0,STARLINK-6196,PAYLOAD,2024-03-31 17:17:19,14.98321017,0.00026,70.0008,89.5762,272.0923,87.9938,-0.00016472,-2.057e-05,0.0,0 STARLINK-6196,1 56487U 23064AR  24091.72036979 -.00002057  00000-0 -16472-3 0  9993,2 56487  70.0008  89.5762 0002600 272.0923  87.9938 14.98321017 50541,6950.221,96.108,573.893,570.279,0.0
56487.0,STARLINK-6196,PAYLOAD,2024-04-01 02:54:09,14.98309756,0.0002366,70.0,88.5663,271.8841,88.2047,-0.00019012,-2.359e-05,0.0,0 STARLINK-6196,1 56487U 23064AR  24092.12094206 -.00002359  00000-0 -19012-3 0  9993,2 56487  70.0000  88.5663 0002366 271.8841  88.2047 14.98309756 50605,6950.255,96.108,573.765,570.476,0.0
56487.0,STARLINK-6196,PAYLOAD,2024-04-01 09:18:41,14.98318206,0.0002933,69.9989,87.893,270.0515,90.0308,-8.909e-05,-1.155e-05,0.0,0 STARLINK-6196,1 56487U 23064AR  24092.38797613 -.00001155  00000-0 -89090-4 0  9990,2 56487  69.9989  87.8930 0002933 270.0515  90.0308 14.98318206 50641,6950.229,96.108,574.133,570.056,0.0
56487.0,STARLINK-6196,PAYLOAD,2024-04-02 02:56:09,14.98327509,0.0002971,69.9989,86.0416,269.9114,90.1705,2.4238e-05,1.96e-06,0.0,0 STARLINK-6196,1 56487U 23064AR  24093.12233077  .00000196  00000-0  24238-4 0  9997,2 56487  69.9989  86.0416 0002971 269.9114  90.1705 14.98327509 50755,6950.201,96.107,574.13,570.001,0.0
56487.0,STARLINK-6196,PAYLOAD,2024-04-02 09:20:41,14.98330444,0.0002963,69.9989,85.368,269.2485,90.8334,6.4682e-05,6.79e-06,0.0,0 STARLINK-6196,1 56487U 23064AR  24093.38936826  .00000679  00000-0  64682-4 0  9990,2 56487  69.9989  85.3680 0002963 269.2485  90.8334 14.98330444 50437,6950.192,96.107,574.116,569.997,0.0
56487.0,STARLINK-6196,PAYLOAD,2024-04-02 17:21:21,14.98334387,0.0002966,69.999,84.5264,270.5752,89.5067,6.241e-05,6.52e-06,0.0,0 STARLINK-6196,1 56487U 23064AR  24093.72316594  .00000652  00000-0  62410-4 0  9990,2 56487  69.9990  84.5264 0002966 270.5752  89.5067 14.98334387 50846,6950.179,96.107,574.106,569.983,0.0
56487.0,STARLINK-6196,PAYLOAD,2024-04-03 09:22:42,14.98333909,0.0003037,69.999,82.843,269.0462,91.0349,0.00019937,2.287e-05,0.0,0 STARLINK-6196,1 56487U 23064AR  24094.39076437  .00002287  00000-0  19937-3 0  9994,2 56487  69.9990  82.8430 0003037 269.0462  91.0349 14.98333909 50584,6950.181,96.107,574.157,569.935,0.0
56487.0,STARLINK-6196,PAYLOAD,2024-04-03 22:11:46,14.98342224,0.0002986,69.9991,81.4963,268.8144,91.2673,7.7432e-05,8.31e-06,0.0,0 STARLINK-6196,1 56487U 23064AR  24094.92483994  .00000831  00000-0  77432-4 0  9991,2 56487  69.9991  81.4963 0002986 268.8144  91.2673 14.98342224 50668,6950.155,96.106,574.095,569.945,0.0
56487.0,STARLINK-6196,PAYLOAD,2024-04-04 04:36:18,14.98342749,0.0002982,69.9991,80.823,268.7957,91.286,7.6456e-05,8.2e-06,0.0,0 STARLINK-6196,1 56487U 23064AR  24095.19187734  .00000820  00000-0  76456-4 0  9997,2 56487  69.9991  80.8230 0002982 268.7957  91.2860 14.98342749 51060,6950.153,96.106,574.091,569.946,0.0
56487.0,STARLINK-6196,PAYLOAD,2024-04-04 09:24:42,14.98344363,0.0002977,69.9992,80.318,268.927,91.1548,8.1523e-05,8.8e-06,0.0,0 STARLINK-6196,1 56487U 23064AR  24095.39215428  .00000880  00000-0  81523-4 0  9998,2 56487  69.9992  80.3180 0002977 268.9270  91.1548 14.98344363 50733,6950.148,96.106,574.083,569.944,0.0
56487.0,STARLINK-6196,PAYLOAD,2024-04-04 15:49:14,14.98338681,0.0003047,69.9998,79.6451,268.1979,91.8831,6.7713e-06,-1.2e-07,0.0,0 STARLINK-6196,1 56487U 23064AR  24095.65919785 -.00000012  00000-0  67713-5 0  9998,2 56487  69.9998  79.6451 0003047 268.1979  91.8831 14.98338681 50770,6950.166,96.106,574.149,569.913,0.0
56487.0,STARLINK-6196,PAYLOAD,2024-04-05 03:02:11,14.98335375,0.0003002,69.9992,78.4666,271.1271,88.9544,-9.4506e-05,-1.221e-05,0.0,0 STARLINK-6196,1 56487U 23064AR  24096.12651987 -.00001221  00000-0 -94506-4 0  9991,2 56487  69.9992  78.4666 0003002 271.1271  88.9544 14.98335375 51203,6950.176,96.107,574.128,569.955,0.0
56487.0,STARLINK-6196,PAYLOAD,2024-04-05 07:50:35,14.98338667,0.0002982,69.9993,77.9622,269.2378,90.8439,-5.6489e-05,-7.67e-06,0.0,0 STARLINK-6196,1 56487U 23064AR  24096.32679543 -.00000767  00000-0 -56489-4 0  9993,2 56487  69.9993  77.9622 0002982 269.2378  90.8439 14.98338667 50876,6950.166,96.106,574.104,569.959,0.0
56487.0,STARLINK-6196,PAYLOAD,2024-04-05 22:15:47,14.98336193,0.0003002,69.9991,76.4468,269.171,90.9105,-9.1007e-05,-1.179e-05,0.0,0 STARLINK-6196,1 56487U 23064AR  24096.92763458 -.00001179  00000-0 -91007-4 0  9991,2 56487  69.9991  76.4468 0003002 269.1710  90.9105 14.98336193 50962,6950.174,96.107,574.125,569.952,0.0
56487.0,STARLINK-6196,PAYLOAD,2024-04-06 04:40:19,14.98336464,0.0003008,69.9991,75.7736,269.6903,90.3911,-8.3841e-05,-1.093e-05,0.0,0 STARLINK-6196,1 56487U 23064AR  24097.19467309 -.00001093  00000-0 -83841-4 0  9999,2 56487  69.9991  75.7736 0003008 269.6903  90.3911 14.98336464 51362,6950.173,96.107,574.129,569.947,0.0
56487.0,STARLINK-6196,PAYLOAD,2024-04-06 09:28:43,14.98337423,0.0002983,69.9992,75.2684,268.7781,91.3036,-6.3337e-05,-8.49e-06,0.0,0 STARLINK-6196,1 56487U 23064AR  24097.39495099 -.00000849  00000-0 -63337-4 0  9994,2 56487  69.9992  75.2684 0002983 268.7781  91.3036 14.98337423 51034,6950.17,96.107,574.108,569.962,0.0
56487.0,STARLINK-6196,PAYLOAD,2024-04-06 15:53:16,14.9833178,0.0002846,69.9997,74.5954,268.8924,91.1909,-0.00010878,-1.391e-05,0.0,0 STARLINK-6196,1 56487U 23064AR  24097.66199534 -.00001391  00000-0 -10878-3 0  9993,2 56487  69.9997  74.5954 0002846 268.8924  91.1909 14.98331780 51070,6950.187,96.107,574.03,570.074,0.0
56487.0,STARLINK-6196,PAYLOAD,2024-04-07 07:54:37,14.98320814,0.0002948,69.9997,72.9117,268.7736,91.3085,5.5698e-05,5.71e-06,0.0,0 STARLINK-6196,1 56487U 23064AR  24098.32959884  .00000571  00000-0  55698-4 0  9996,2 56487  69.9997  72.9117 0002948 268.7736  91.3085 14.98320814 51170,6950.221,96.108,574.135,570.037,0.0
56487.0,STARLINK-6196,PAYLOAD,2024-04-07 22:19:49,14.98329109,0.000298,69.9995,71.3968,269.7556,90.3262,5.3196e-06,-3e-07,0.0,0 STARLINK-6196,1 56487U 23064AR  24098.93043493 -.00000030  00000-0  53196-5 0  9996,2 56487  69.9995  71.3968 0002980 269.7556  90.3262 14.98329109 51264,6950.196,96.107,574.132,569.989,0.0
56487.0,STARLINK-6196,PAYLOAD,2024-04-08 04:44:21,14.98331366,0.0002982,69.9996,70.7235,269.7236,90.3582,3.0122e-05,2.66e-06,0.0,0 STARLINK-6196,1 56487U 23064AR  24099.19747283  .00000266  00000-0  30122-4 0  9996,2 56487  69.9996  70.7235 0002982 269.7236  90.3582 14.98331366 51669,6950.189,96.107,574.126,569.981,0.0
56487.0,STARLINK-6196,PAYLOAD,2024-04-08 07:56:37,14.98332558,0.0003161,69.9998,70.3869,273.4156,86.6641,4.7298e-05,4.71e-06,0.0,0 STARLINK-6196,1 56487U 23064AR  24099.33099150  .00000471  00000-0  47298-4 0  9995,2 56487  69.9998  70.3869 0003161 273.4156  86.6641 14.98332558 51324,6950.185,96.107,574.247,569.853,0.0
56487.0,STARLINK-6196,PAYLOAD,2024-04-08 23:57:58,14.9832756,0.0002977,70.0002,68.7035,269.9979,90.0839,6.5224e-05,6.85e-06,0.0,0 STARLINK-6196,1 56487U 23064AR  24099.99859401  .00000685  00000-0  65224-4 0  9996,2 56487  70.0002  68.7035 0002977 269.9979  90.0839 14.98327560 51422,6950.2,96.107,574.135,569.996,0.0
56487.0,STARLINK-6196,PAYLOAD,2024-04-09 04:46:22,14.98328778,0.0002937,70.0,68.1987,271.2595,88.8227,7.567e-05,8.1e-06,0.0,0 STARLINK-6196,1 56487U 23064AR  24100.19887324  .00000810  00000-0  75670-4 0  9992,2 56487  70.0000  68.1987 0002937 271.2595  88.8227 14.98328778 51817,6950.197,96.107,574.103,570.02,0.0
56487.0,STARLINK-6196,PAYLOAD,2024-04-09 07:58:38,14.98326154,0.0002861,70.0,67.8626,268.3496,91.7335,0.00012023,1.342e-05,0.0,0 STARLINK-6196,1 56487U 23064AR  24100.33239381  .00001342  00000-0  12023-3 0  9995,2 56487  70.0000  67.8626 0002861 268.3496  91.7335 14.98326154 51477,6950.205,96.107,574.058,570.081,0.0
